2025/07/04 14:54 KBUF 041454Z 00000KT 10SM FEW048 FEW260 FEW310 22/09 A3017 RMK AO2 SLP214 T02170089
