2025/07/04 18:42 TAF CYYZ 041740Z 0418/0524 17009KT P6SM FEW020 FEW250       FM042300 17009KT P6SM FEW250        BECMG 0502/0504 VRB03KT       FM050700 VRB03KT P6SM FEW050 BKN180       FM051100 VRB03KT P6SM BKN040 OVC080        BECMG 0513/0515 16008KT        BECMG 0516/0517 16012KT       FM051700 16012KT P6SM BKN060        TEMPO 0517/0520 P6SM VCTS BKN040CB       FM052000 16012KT 6SM -SHRA BR BKN060 PROB30 0520/0523 VRB15G25KT 2SM TSRA BR BKN040CB       FM052300 22010G20KT P6SM BKN080        RMK NXT FCST BY 042100Z
